     2.100          NAVIGATION                              RINEX VERSION / TYPE
fic2rin                                 05/11/2014 01:00:20 PGM / RUN BY / DATE
                                                            END OF HEADER
17 14  5 10  8  0  0.0 -.919420272112D-04 -.306954461848D-11  .000000000000D+00
     .950000000000D+02 -.687500000000D+00  .471019619858D-08  .498424026458D+00
    -.216066837311D-06  .928697362542D-02  .516325235367D-05  .515358422852D+04
     .547200000000D+06 -.968575477600D-07 -.233170350652D+01  .614672899246D-07
     .968448235528D+00  .284593750000D+03 -.209967607525D+01 -.836856286995D-08
     .191793703263D-09  .100000000000D+01  .179100000000D+04  .000000000000D+00
     .240000000000D+01  .000000000000D+00 -.102445483208D-07  .950000000000D+02
     .540006000000D+06  .400000000000D+01
18 14  5 10  8  0  0.0  .318330712616D-03  .227373675443D-11  .000000000000D+00
     .580000000000D+02  .576250000000D+02  .521128849966D-08  .210486001470D+01
     .272877514362D-05  .152105406160D-01  .107847154140D-04  .515369756317D+04
     .547200000000D+06 -.111758708954D-07 -.288479533771D+00 -.335276126862D-06
     .926207780912D+00  .151468750000D+03 -.204105262343D+01 -.819641284207D-08
     .113219001740D-09  .100000000000D+01  .179100000000D+04  .000000000000D+00
     .240000000000D+01  .000000000000D+00 -.111758708954D-07  .580000000000D+02
     .540006000000D+06  .400000000000D+01
19 14  5 10  8  0  0.0 -.456005334854D-03 -.227373675443D-11  .000000000000D+00
     .550000000000D+02 -.268750000000D+01  .485484508093D-08 -.274711199807D+00
     .149011611938D-07  .102927027037D-01  .472366809845D-05  .515360308266D+04
     .547200000000D+06  .109896063805D-06 -.228083663361D+01  .106170773506D-06
     .965538135979D+00  .290156250000D+03  .424494405096D+00 -.844749472921D-08
     .211794536378D-09  .100000000000D+01  .179100000000D+04  .000000000000D+00
     .240000000000D+01  .000000000000D+00 -.149011611938D-07  .550000000000D+02
     .540006000000D+06  .400000000000D+01
20 14  5 10  8  0  0.0  .187972094864D-03  .386535248253D-11  .000000000000D+00
     .710000000000D+02  .430312500000D+02  .520914555325D-08  .263116887335D+01
     .220164656639D-05  .578744336963D-02  .102780759335D-04  .515380284119D+04
     .547200000000D+06  .223517417908D-07 -.341551786409D+00 -.137835741043D-06
     .927166379927D+00  .158781250000D+03  .133148205522D+01 -.821319925557D-08
     .171435712414D-10  .100000000000D+01  .179100000000D+04  .000000000000D+00
     .240000000000D+01  .000000000000D+00 -.838190317154D-08  .710000000000D+02
     .540006000000D+06  .400000000000D+01
21 14  5 10  8  0  0.0 -.360223930329D-03 -.216004991671D-11  .000000000000D+00
     .280000000000D+02 -.583437500000D+02  .522450333582D-08  .307526569899D+01
    -.319816172123D-05  .214758403599D-01  .886432826519D-05  .515376533318D+04
     .547200000000D+06  .212341547012D-06 -.133379282210D+01 -.340864062309D-06
     .931971242195D+00  .190968750000D+03 -.202817596290D+01 -.807926510525D-08
    -.335371112410D-09  .100000000000D+01  .179100000000D+04  .000000000000D+00
     .240000000000D+01  .000000000000D+00 -.111758708954D-07  .280000000000D+02
     .540006000000D+06  .400000000000D+01
22 14  5 10  8  0  0.0  .233121681958D-03  .306954461848D-11  .000000000000D+00
     .440000000000D+02  .604375000000D+02  .540165357198D-08  .154762222102D+01
     .311806797981D-05  .716677762102D-02  .107660889626D-04  .515373312187D+04
     .547200000000D+06 -.169500708580D-06 -.286559708339D+00 -.372529029846D-07
     .923981880834D+00  .154906250000D+03 -.205918631957D+01 -.847106713966D-08
     .123219418298D-09  .100000000000D+01  .179100000000D+04  .000000000000D+00
     .240000000000D+01  .000000000000D+00 -.172294676304D-07  .440000000000D+02
     .540006000000D+06  .400000000000D+01
23 14  5 10  8  0  0.0 -.192928127944D-04 -.306954461848D-11  .000000000000D+00
     .510000000000D+02  .400625000000D+02  .502806658201D-08 -.586183286830D+00
     .192783772945D-05  .929405062925D-02  .378675758839D-05  .515378574753D+04
     .547200000000D+06  .186264514923D-06  .776813906400D+00  .100582838058D-06
     .952123855986D+00  .300625000000D+03 -.279384169184D+01 -.855428489173D-08
    -.778603860547D-10  .100000000000D+01  .179100000000D+04  .000000000000D+00
     .240000000000D+01  .000000000000D+00 -.200234353542D-07  .510000000000D+02
     .540006000000D+06  .400000000000D+01
24 14  5 10  8  0  0.0 -.281236134470D-04 -.568434188608D-12  .000000000000D+00
     .520000000000D+02 -.543750000000D+02  .448697261471D-08 -.143848169170D+01
    -.279769301414D-05  .207552965730D-02  .722333788872D-05  .515373483086D+04
     .547200000000D+06  .558793544769D-08  .180414194966D+01 -.689178705215D-07
     .956692203899D+00  .240125000000D+03  .348182404086D+00 -.812319550656D-08
    -.384658879729D-09  .100000000000D+01  .179100000000D+04  .000000000000D+00
     .240000000000D+01  .000000000000D+00  .279396772385D-08  .520000000000D+02
     .540006000000D+06  .400000000000D+01
25 14  5 10  8  0  0.0  .235647894442D-04  .682121026330D-12  .000000000000D+00
     .350000000000D+02  .169375000000D+02  .382837375285D-08  .282366932605D+01
     .888481736183D-06  .356932019349D-02  .103265047073D-04  .515362004280D+04
     .547200000000D+06  .726431608200D-07  .285906252238D+01  .186264514923D-08
     .976391658335D+00  .189281250000D+03  .663584200671D+00 -.772817905253D-08
     .394302138552D-09  .100000000000D+01  .179100000000D+04  .000000000000D+00
     .240000000000D+01  .000000000000D+00  .512227416039D-08  .350000000000D+02
     .540006000000D+06  .400000000000D+01
26 14  5 10  8  0  0.0  .833198428154D-04 -.117097442853D-10  .000000000000D+00
     .360000000000D+02  .245937500000D+02  .465519390751D-08 -.721478384905D+00
     .155717134476D-05  .214083986357D-01  .430643558502D-05  .515368832207D+04
     .547200000000D+06 -.217929482460D-06  .864909174184D+00  .257045030594D-06
     .975236241247D+00  .305000000000D+03  .128193404684D+01 -.861750181068D-08
    -.100004165575D-09  .100000000000D+01  .179100000000D+04  .000000000000D+00
     .240000000000D+01  .000000000000D+00 -.605359673500D-08  .360000000000D+02
     .540006000000D+06  .400000000000D+01
27 14  5 10  8  0  0.0 -.170171260834D-04  .159161572810D-11  .000000000000D+00
     .114000000000D+03  .525000000000D+01  .482841540860D-08  .595861829957D+00
     .270083546638D-06  .120732560754D-02  .493042171001D-05  .515366735840D+04
     .547200000000D+06  .745058059692D-08 -.237713298211D+01  .931322574615D-08
     .963217931813D+00  .287031250000D+03  .114589799685D+00 -.831034615927D-08
     .267511142913D-09  .100000000000D+01  .179100000000D+04  .000000000000D+00
     .240000000000D+01  .000000000000D+00  .186264514923D-08  .114000000000D+03
     .540006000000D+06  .400000000000D+01
28 14  5 10  8  0  0.0  .353651586920D-03  .284217094304D-11  .000000000000D+00
     .183000000000D+03  .353125000000D+01  .372908390274D-08  .134590873596D+01
     .745058059692D-07  .191283434397D-01  .969134271145D-05  .515367509079D+04
     .547200000000D+06 -.331550836563D-06  .292560170982D+01 -.370666384697D-06
     .986826593014D+00  .208375000000D+03 -.171566088405D+01 -.784854120896D-08
     .341442793891D-09  .100000000000D+01  .179100000000D+04  .000000000000D+00
     .340000000000D+01  .000000000000D+00 -.107102096081D-07  .183000000000D+03
     .540006000000D+06  .400000000000D+01
29 14  5 10  8  0  0.0  .531503465027D-03  .272848410532D-11  .000000000000D+00
     .310000000000D+02 -.221875000000D+01  .465126517244D-08 -.300714730611D+01
    -.139698386192D-06  .161474756896D-02  .496022403240D-05  .515370528984D+04
     .547200000000D+06 -.279396772385D-07 -.232265764036D+01  .540167093277D-07
     .969173553237D+00  .283968750000D+03 -.885107063828D+00 -.821569935971D-08
     .261082303697D-09  .100000000000D+01  .179100000000D+04  .000000000000D+00
     .240000000000D+01  .000000000000D+00 -.977888703346D-08  .310000000000D+02
     .540006000000D+06  .400000000000D+01
31 14  5 10  8  0  0.0  .334251672029D-03  .000000000000D+00  .000000000000D+00
     .860000000000D+02 -.659687500000D+02  .406731227703D-08 -.238013976153D+01
    -.337697565556D-05  .798942125402D-02  .817514955997D-05  .515354674911D+04
     .547200000000D+06 -.558793544769D-07  .184460955237D+01  .119209289551D-06
     .978268664154D+00  .232343750000D+03 -.636163912266D+00 -.790890086604D-08
    -.418231706744D-09  .100000000000D+01  .179100000000D+04  .000000000000D+00
     .240000000000D+01  .000000000000D+00 -.130385160446D-07  .860000000000D+02
     .540006000000D+06  .400000000000D+01
32 14  5 10  8  0  0.0 -.432073604316D-03  .807176547823D-11  .000000000000D+00
     .840000000000D+02  .615625000000D+02  .484484466437D-08 -.167781872336D+01
     .320002436638D-05  .114155809861D-01  .101253390312D-04  .515375169754D+04
     .547200000000D+06  .409781932831D-07 -.194791470189D+00 -.281259417534D-06
     .948174410196D+00  .176218750000D+03 -.160699459035D+00 -.823069998455D-08
     .268939773850D-09  .100000000000D+01  .179100000000D+04  .000000000000D+00
     .340000000000D+01  .000000000000D+00 -.325962901115D-08  .840000000000D+02
     .540006000000D+06  .400000000000D+01
 4 14  5 10  7 59 44.0  .685779377818D-05  .000000000000D+00  .000000000000D+00
     .500000000000D+01 -.519375000000D+02  .516664378288D-08  .235778616408D+01
    -.280141830444D-05  .105614062632D-01  .814534723759D-05  .515373247528D+04
     .547184000000D+06  .558793544769D-08 -.133521164636D+01 -.178813934326D-06
     .938054235507D+00  .211312500000D+03  .109359895347D+01 -.816498296146D-08
    -.254653464482D-09  .100000000000D+01  .179100000000D+04  .000000000000D+00
     .240000000000D+01  .000000000000D+00 -.651925802231D-08  .500000000000D+01
     .543786000000D+06  .400000000000D+01
